COSMOS 2550             
1 48865U 21056A   25321.75148954  .00000410  00000+0  18295-4 0  9994
2 48865  67.1442  19.5175 0007988 267.0672  92.9568 15.33796833246297
CZ-2C R/B               
1 52794U 22058K   25321.62607786  .00027297  00000+0  51759-3 0  9995
2 52794  50.1898 171.4560 0048318  94.3879 266.2611 15.46795612192741
GSLV R/B                
1 54149U 22138AN  25321.63875404  .00003958  00000+0  34954-3 0  9991
2 54149  87.3854 203.8756 0020821 192.1234 167.9499 14.95951505167177
XRISM                   
1 57800U 23137A   25321.58573859  .00008501  00000+0  50445-3 0  9993
2 57800  31.0031 287.9071 0007902 349.2201  10.8267 15.09994518120821
ACS3                    
1 59588U 24077B   25321.46221809  .00009479  00000+0  84356-2 0  9996
2 59588  97.3021 282.6894 0062778  21.1800 339.1939 13.83869818 78647
