CCSDS_OMM_VERS = 2.0
CREATION_DATE  = 
ORIGINATOR     = 

OBJECT_NAME    = COSMOS 2550
OBJECT_ID      = 2021-056A
CENTER_NAME    = EARTH
REF_FRAME      = TEME
TIME_SYSTEM    = UTC
MEAN_ELEMENT_THEORY = SGP/SGP4

EPOCH          = 2025-11-17T18:02:08.696256
MEAN_MOTION    = 15.33796833
ECCENTRICITY   = .0007988
INCLINATION    = 67.1442
RA_OF_ASC_NODE = 19.5175
ARG_OF_PERICENTER = 267.0672
MEAN_ANOMALY   = 92.9568

EPHEMERIS_TYPE = 0
CLASSIFICATION_TYPE = U
NORAD_CAT_ID   = 48865
ELEMENT_SET_NO = 999
REV_AT_EPOCH   = 24629
BSTAR          = .18295E-4
MEAN_MOTION_DOT = .41E-5
MEAN_MOTION_DDOT = 0

CCSDS_OMM_VERS = 2.0
CREATION_DATE  = 
ORIGINATOR     = 

OBJECT_NAME    = CZ-2C R/B
OBJECT_ID      = 2022-058K
CENTER_NAME    = EARTH
REF_FRAME      = TEME
TIME_SYSTEM    = UTC
MEAN_ELEMENT_THEORY = SGP/SGP4

EPOCH          = 2025-11-17T15:01:33.127104
MEAN_MOTION    = 15.46795612
ECCENTRICITY   = .00483179
INCLINATION    = 50.1898
RA_OF_ASC_NODE = 171.4560
ARG_OF_PERICENTER = 94.3879
MEAN_ANOMALY   = 266.2611

EPHEMERIS_TYPE = 0
CLASSIFICATION_TYPE = U
NORAD_CAT_ID   = 52794
ELEMENT_SET_NO = 999
REV_AT_EPOCH   = 19274
BSTAR          = .51759307E-3
MEAN_MOTION_DOT = .27297E-3
MEAN_MOTION_DDOT = 0

CCSDS_OMM_VERS = 2.0
CREATION_DATE  = 
ORIGINATOR     = 

OBJECT_NAME    = GSLV R/B
OBJECT_ID      = 2022-138AN
CENTER_NAME    = EARTH
REF_FRAME      = TEME
TIME_SYSTEM    = UTC
MEAN_ELEMENT_THEORY = SGP/SGP4

EPOCH          = 2025-11-17T15:19:48.349056
MEAN_MOTION    = 14.95951505
ECCENTRICITY   = .00208206
INCLINATION    = 87.3854
RA_OF_ASC_NODE = 203.8756
ARG_OF_PERICENTER = 192.1234
MEAN_ANOMALY   = 167.9499

EPHEMERIS_TYPE = 0
CLASSIFICATION_TYPE = U
NORAD_CAT_ID   = 54149
ELEMENT_SET_NO = 999
REV_AT_EPOCH   = 16717
BSTAR          = .34953544E-3
MEAN_MOTION_DOT = .3958E-4
MEAN_MOTION_DDOT = 0

CCSDS_OMM_VERS = 2.0
CREATION_DATE  = 
ORIGINATOR     = 

OBJECT_NAME    = XRISM
OBJECT_ID      = 2023-137A
CENTER_NAME    = EARTH
REF_FRAME      = TEME
TIME_SYSTEM    = UTC
MEAN_ELEMENT_THEORY = SGP/SGP4

EPOCH          = 2025-11-17T14:03:27.814176
MEAN_MOTION    = 15.09994518
ECCENTRICITY   = .00079025
INCLINATION    = 31.0031
RA_OF_ASC_NODE = 287.9071
ARG_OF_PERICENTER = 349.2201
MEAN_ANOMALY   = 10.8267

EPHEMERIS_TYPE = 0
CLASSIFICATION_TYPE = U
NORAD_CAT_ID   = 57800
ELEMENT_SET_NO = 999
REV_AT_EPOCH   = 12082
BSTAR          = .50445084E-3
MEAN_MOTION_DOT = .8501E-4
MEAN_MOTION_DDOT = 0

CCSDS_OMM_VERS = 2.0
CREATION_DATE  = 
ORIGINATOR     = 

OBJECT_NAME    = ACS3
OBJECT_ID      = 2024-077B
CENTER_NAME    = EARTH
REF_FRAME      = TEME
TIME_SYSTEM    = UTC
MEAN_ELEMENT_THEORY = SGP/SGP4

EPOCH          = 2025-11-17T11:05:35.643840
MEAN_MOTION    = 13.83869818
ECCENTRICITY   = .00627783
INCLINATION    = 97.3021
RA_OF_ASC_NODE = 282.6894
ARG_OF_PERICENTER = 21.1800
MEAN_ANOMALY   = 339.1939

EPHEMERIS_TYPE = 0
CLASSIFICATION_TYPE = U
NORAD_CAT_ID   = 59588
ELEMENT_SET_NO = 999
REV_AT_EPOCH   = 7864
BSTAR          = .84356211E-2
MEAN_MOTION_DOT = .9479E-4
MEAN_MOTION_DDOT = 0

